STARLINK-1263           
1 45405U 20019AX  26068.55551068 -.00001163  00000+0 -27141-4 0  9998
2 45405  53.1609 129.8934 0001496  91.1707 268.9465 15.30197423329958
TOMORROW-S2             
1 60485U 24149T   26068.75188364  .00008133  00000+0  27683-3 0  9990
2 60485  97.3857 150.0385 0001648 234.3331 125.7757 15.30674935 86869
